H1 CPF  1  MCC 2022  3 23 12  5821 larets
H2  0304206 5557    27944 2022 03 22 23 55 00 2022 03 28 00 07 00   180 1 1  0 0 0
H9
10 0 59662 51540.000000 0      1480836.213       889409.341      6837548.620
10 0 59662 51720.000000 0      2774892.693       710794.661      6443521.062
10 0 59662 51900.000000 0      3962486.987       473730.948      5813255.901
10 0 59662 52080.000000 0      4998849.612       190210.872      4969616.243
10 0 59662 52260.000000 0      5844983.372      -124958.685      3943362.047
10 0 59662 52440.000000 0      6469205.020      -454865.657      2772065.358
10 0 59662 52620.000000 0      6848417.120      -781322.862      1498740.396
10 0 59662 52800.000000 0      6969035.852     -1085783.805       170237.579
10 0 59662 52980.000000 0      6827528.674     -1350294.931     -1164534.183
10 0 59662 53160.000000 0      6430518.849     -1558433.142     -2456481.782
10 0 59662 53340.000000 0      5794450.903     -1696175.629     -3658201.439
10 0 59662 53520.000000 0      4944843.244     -1752655.451     -4725761.555
10 0 59662 53700.000000 0      3915180.121     -1720763.667     -5620317.611
10 0 59662 53880.000000 0      2745506.993     -1597573.992     -6309497.633
10 0 59662 54060.000000 0      1480808.778     -1384572.098     -6768512.968
10 0 59662 54240.000000 0       169248.344     -1087683.499     -6980977.898
10 0 59662 54420.000000 0     -1139667.632      -717106.527     -6939425.387
10 0 59662 54600.000000 0     -2396931.371      -286956.816     -6645523.177
10 0 59662 54780.000000 0     -3555832.835       185266.088     -6109991.824
10 0 59662 54960.000000 0     -4573661.347       679371.918     -5352234.041
10 0 59662 55140.000000 0     -5413270.468      1173311.874     -4399680.770
10 0 59662 55320.000000 0     -6044454.025      1644124.959     -3286858.374
10 0 59662 55500.000000 0     -6445076.804      2068964.111     -2054187.894
10 0 59662 55680.000000 0     -6601906.209      2426154.182      -746548.124
10 0 59662 55860.000000 0     -6511100.903      2696234.104       588354.460
10 0 59662 56040.000000 0     -6178319.421      2862928.064      1901747.524
10 0 59662 56220.000000 0     -5618436.922      2913996.571      3145607.285
10 0 59662 56400.000000 0     -4854884.815      2841919.844      4274446.117
10 0 59662 56580.000000 0     -3918647.674      2644376.730      5246995.041
10 0 59662 56760.000000 0     -2846974.122      2324499.399      6027709.688
10 0 59662 56940.000000 0     -1681865.330      1890895.209      6588053.324
10 0 59662 57120.000000 0      -468405.218      1357431.752      6907512.221
10 0 59662 57300.000000 0       746989.660       742795.416      6974316.460
10 0 59662 57480.000000 0      1918338.344        69840.730      6785862.223
10 0 59662 57660.000000 0      3001830.076      -635250.458      6348826.902
10 0 59662 57840.000000 0      3957472.496     -1343978.281      5678970.993
10 0 59662 58020.000000 0      4750599.891     -2026670.859      4800618.578
10 0 59662 58200.000000 0      5353181.694     -2653726.959      3745821.961
10 0 59662 58380.000000 0      5744882.016     -3196906.389      2553224.243
10 0 59662 58560.000000 0      5913809.880     -3630608.500      1266642.074
10 0 59662 58740.000000 0      5856917.662     -3933074.357       -66575.047
10 0 59662 58920.000000 0      5580022.995     -4087446.131     -1397346.265
10 0 59662 59100.000000 0      5097447.126     -4082622.571     -2676739.583
10 0 59662 59280.000000 0      4431288.202     -3913862.812     -3857836.239
10 0 59662 59460.000000 0      3610375.829     -3583111.652     -4897490.920
10 0 59662 59640.000000 0      2668969.954     -3099033.124     -5757910.629
10 0 59662 59820.000000 0      1645281.328     -2476760.860     -6407990.503
10 0 59662 60000.000000 0       579891.606     -1737389.779     -6824376.414
10 0 59662 60180.000000 0      -485865.050      -907227.520     -6992233.632
10 0 59662 60360.000000 0     -1511490.843       -16843.547     -6905706.037
10 0 59662 60540.000000 0     -2458833.440       900048.810     -6568077.460
10 0 59662 60720.000000 0     -3293473.400      1807846.265     -5991638.128
10 0 59662 60900.000000 0     -3985952.406      2670409.961     -5197265.944
10 0 59662 61080.000000 0     -4512815.007      3452483.900     -4213723.477
10 0 59662 61260.000000 0     -4857421.726      4121127.345     -3076671.018
10 0 59662 61440.000000 0     -5010498.012      4647103.805     -1827422.362
10 0 59662 61620.000000 0     -4970395.876      5006164.956      -511472.560
10 0 59662 61800.000000 0     -4743049.248      5180167.061       823157.319
10 0 59662 61980.000000 0     -4341614.380      5157957.005      2127696.145
10 0 59662 62160.000000 0     -3785809.593      4935974.570      3354441.773
10 0 59662 62340.000000 0     -3100984.019      4518539.562      4458535.280
10 0 59662 62520.000000 0     -2316972.463      3917814.512      5399614.951
10 0 59662 62700.000000 0     -1466792.935      3153444.587      6143289.062
10 0 59662 62880.000000 0      -585249.537      2251892.535      6662371.372
10 0 59662 63060.000000 0       292491.814      1245503.493      6937842.465
10 0 59662 63240.000000 0      1132299.520       171339.335      6959523.242
10 0 59662 63420.000000 0      1902398.913      -930180.302      6726444.823
10 0 59662 63600.000000 0      2574576.071     -2016790.161      6246910.088
10 0 59662 63780.000000 0      3125226.362     -3046000.441      5538238.527
10 0 59662 63960.000000 0      3536211.434     -3976773.398      4626190.206
10 0 59662 64140.000000 0      3795489.906     -4771193.330      3544074.924
10 0 59662 64320.000000 0      3897494.253     -5396061.332      2331560.585
10 0 59662 64500.000000 0      3843229.637     -5824336.849      1033213.287
10 0 59662 64680.000000 0      3640085.293     -6036348.259      -303178.033
10 0 59662 64860.000000 0      3301367.027     -6020706.290     -1628420.034
10 0 59662 65040.000000 0      2845569.847     -5774868.221     -2893799.253
10 0 59662 65220.000000 0      2295431.525     -5305319.128     -4052935.906
10 0 59662 65400.000000 0      1676820.328     -4627364.080     -5063521.464
10 0 59662 65580.000000 0      1017523.360     -3764552.526     -5888856.754
10 0 59662 65760.000000 0       346005.033     -2747781.528     -6499141.670
10 0 59662 65940.000000 0      -309811.190     -1614127.377     -6872484.017
10 0 59662 66120.000000 0      -923684.135      -405458.999     -6995610.366
10 0 59662 66300.000000 0     -1472078.482       833112.098     -6864274.991
10 0 59662 66480.000000 0     -1935043.156      2054892.385     -6483368.328
10 0 59662 66660.000000 0     -2296918.177      3213330.932     -5866734.280
10 0 59662 66840.000000 0     -2546854.849      4263764.322     -5036701.811
10 0 59662 67020.000000 0     -2679134.539      5165130.748     -4023329.962
10 0 59662 67200.000000 0     -2693273.287      5881589.393     -2863372.028
10 0 59662 67380.000000 0     -2593903.412      6383975.701     -1598987.750
10 0 59662 67560.000000 0     -2390437.275      6651032.829      -276235.722
10 0 59662 67740.000000 0     -2096525.837      6670349.783      1056603.976
10 0 59662 67920.000000 0     -1729334.223      6438958.946      2350819.858
10 0 59662 68100.000000 0     -1308662.808      5963534.591      3559089.638
10 0 59662 68280.000000 0      -855968.813      5260195.468      4637234.328
10 0 59662 68460.000000 0      -393339.318      4353929.007      5545846.233
10 0 59662 68640.000000 0        57540.258      3277659.605      6251720.713
10 0 59662 68820.000000 0       476364.989      2071017.780      6729045.137
10 0 59662 69000.000000 0       845097.415       778858.751      6960314.639
10 0 59662 69180.000000 0      1148728.702      -550410.272      6936952.357
10 0 59662 69360.000000 0      1375885.911     -1866635.428      6659626.776
10 0 59662 69540.000000 0      1519265.079     -3119805.332      6138258.509
10 0 59662 69720.000000 0      1575874.071     -4261963.717      5391705.989
10 0 59662 69900.000000 0      1547075.271     -5249074.740      4447128.637
10 0 59662 70080.000000 0      1438429.673     -6042773.926      3339044.660
10 0 59662 70260.000000 0      1259343.541     -6611936.661      2108091.100
10 0 59662 70440.000000 0      1022528.635     -6933975.539       799524.264
10 0 59662 70620.000000 0       743301.685     -6995805.128      -538482.058
10 0 59662 70800.000000 0       438754.720     -6794410.679     -1856680.440
10 0 59662 70980.000000 0       126844.578     -6336972.349     -3106638.658
10 0 59662 71160.000000 0      -174542.589     -5640555.365     -4242574.598
10 0 59662 71340.000000 0      -448505.744     -4731390.241     -5223061.693
10 0 59662 71520.000000 0      -679974.328     -3643788.266     -6012527.727
10 0 59662 71700.000000 0      -856442.578     -2418762.017     -6582498.362
10 0 59662 71880.000000 0      -968561.797     -1102420.369     -6912554.447
10 0 59662 72060.000000 0     -1010570.877       255789.195     -6990988.766
10 0 59662 72240.000000 0      -980551.414      1604926.759     -6815161.035
10 0 59662 72420.000000 0      -880501.448      2894435.125     -6391555.445
10 0 59662 72600.000000 0      -716228.713      4075995.872     -5735549.652
10 0 59662 72780.000000 0      -497065.818      5105318.623     -4870894.986
10 0 59662 72960.000000 0      -235417.442      5943804.947     -3828911.106
10 0 59662 73140.000000 0        53844.005      6560027.418     -2647405.141
10 0 59662 73320.000000 0       354112.712      6930958.297     -1369340.529
10 0 59662 73500.000000 0       647882.134      7042890.329       -41292.372
10 0 59662 73680.000000 0       917638.010      6891994.938      1288258.552
10 0 59662 73860.000000 0      1146764.929      6484479.612      2570722.744
10 0 59662 74040.000000 0      1320414.479      5836335.650      3759207.564
10 0 59662 74220.000000 0      1426295.810      4972692.967      4810256.677
10 0 59662 74400.000000 0      1455349.863      3926807.181      5685454.382
99
